IRIDIUM 914             
1 24836U 97030A   25284.13615797  .00000474  00000+0  14137-3 0  9995
2 24836  86.3926 133.4196 0002206 129.5816 230.5578 14.40976665623827
IRIDIUM 16              
1 24841U 97030F   25284.13123058  .00000387  00000+0  11959-3 0  9997
2 24841  86.4072 156.6214 0004053  65.4529 294.7091 14.38806800483674
IRIDIUM 911             
1 24842U 97030G   25284.09888245  .00000609  00000+0  15897-3 0  9991
2 24842  86.4494 155.2798 0016302  73.1891 287.1099 14.47782509491855
IRIDIUM 17              
1 24870U 97034B   25284.18938367  .00000568  00000+0  18155-3 0  9991
2 24870  86.4028 186.0094 0002775  47.4582 312.6850 14.37942650480255
IRIDIUM 920             
1 24871U 97034C   25284.14243890  .00000515  00000+0  15180-3 0  9995
2 24871  86.4027 165.0193 0013542  63.3284 296.9301 14.41645410483282
